#dP2022  4 25  0  0  0.00000000      96 __u+U ITR00 EXT  IAC
## 2207  86400.00000000   900.00000000 59694 0.0000000000000
+  117   C06C07C08C09C10C11C12C13C14C16C19C20C21C22C23C24C25
+        C26C27C28C29C30C32C33C34C35C36C37C38C39C40C41C42C43
+        C44C45C46E01E02E03E04E05E07E08E09E10E11E12E13E14E15
+        E18E19E21E24E25E26E27E30E31E33E34E36G01G02G03G04G05
+        G06G07G08G09G10G11G12G13G14G15G16G17G18G19G20G21G22
+        G23G24G25G26G27G28G29G30G31G32J02J03R01R02R03R04R05
+        R07R08R09R11R12R13R14R15R17R18R19R20R21R22R24  0  0
++         8  8  9  9 10  8  8  9  8 10  9  8  9  8  8  8  8
++         8  9  9  8  9  9  8  8  8  9  8  9 10 10 10  8  8
++         9  8  9  8  8  8  8  8  8  7  7  9  8  9  9  8 10
++         8  8  8  8  9  9  8  9  8  9  8  8  8  9  7  9  8
++         8  8  8  9  8  9  8  8  8  8  8  8  9  8  8  8  8
++         8  8  8  8  8  8  8  8  7  9 10  9  8  8  8 10  9
++         8  8  8  9  9  9  9  8  8  8  9  9  9 10  9  0  0
%c M  cc GPS ccc cccc cccc cccc cccc ccccc ccccc ccccc ccccc
%c cc cc ccc ccc cccc cccc cccc cccc ccccc ccccc ccccc ccccc
%f  0.0000000  0.000000000  0.00000000000  0.000000000000000
%f  0.0000000  0.000000000  0.00000000000  0.000000000000000
%i    0    0    0    0      0      0      0      0         0
%i    0    0    0    0      0      0      0      0         0
/* IAC                                ULTRA-RAPID PREDICTION
/* S/V CLOCKS ARE ALIGNED TO GNSS TIME                      
/* G:C1WC2W R:C1PC2P E:C1XC5X C:C2IC6I J:C1CC2S             
/* PCV:IGS14_2196 OL/AL:FES2004  NONE     YN ORB:CoN CLK:CoN
*  2022 04 25  5 15  0.00000000
PC06  -2132.835060  34969.721151 -23294.974936   -140.528940
PC07 -13528.519486  25732.824016  30500.011069    -83.585773
PC08 -17911.200912  37179.563254  -8987.504958    278.163347
PC09   4877.517843  38819.978342 -14665.193585   -727.904602
PC10  -3780.557102  26964.068454  32408.868075    135.017462
PC11 -16599.777934 -20778.579051   8468.843054    312.767517
PC12  -6390.741388 -25568.538325  -9131.297437   -624.641084
PC13 -10768.083319  37341.188472 -16536.863035    -51.034739
PC14 -21133.530358 -10747.277268  14697.287981    462.672312
PC16  -3564.317876  33295.818732 -25290.695451    123.794497
PC19  26731.959700   5033.992589  -6252.331917    875.397334
PC20  14028.200237  13931.379477 -19686.857299   -890.105761
PC21   8044.312527 -15007.741174  22137.147178   -173.921951
PC22  24518.990530  -7081.228313  11333.197782   -971.043927
PC23 -19912.776940  15206.939349 -12286.675376   -931.254270
PC24  -3002.429920 -20514.603023 -18678.625200   -956.812622
PC25 -16937.349233  -2392.227108 -22059.828673   -746.043110
PC26  10401.245356 -25291.130247  -5481.254319    746.946416
PC27   -891.834484  22665.515624  16219.679382    713.162287
PC28 -13919.666078   7640.030642  22947.100533     59.264726
PC29  19531.307978  11749.207072 -16107.012947    545.961943
PC30  13310.336953  24499.616009    748.772050    497.487200
PC32  -7941.966121  15055.391186 -22089.040640   -962.727181
PC33 -26697.770475  -4978.813454   6384.534395   -966.569565
PC34 -13846.564197 -24244.655977    202.060202   -417.954203
PC35  14239.530915  -7219.745879 -22898.985402    244.476757
PC36  16621.775833   3356.458431  22183.688357   -963.853039
PC37 -11797.286454  24920.078656   4390.046440   -919.196610
PC38 -21384.161234  36401.436652  -1334.425871    227.568024
PC39  -7132.113326  29105.275857 -29566.416359     34.951388
PC40 -19094.057365  19118.357981  32300.062431    263.694421
PC41 -24750.597196   6866.687925 -10848.764544   -966.362993
PC42 -12913.298058 -14311.019096  20220.431923   -956.746796
PC43 -19543.771433 -12473.728714  15537.439297   -927.933792
PC44    339.633522 -22663.844093 -16316.950234    638.824835
PC45  19805.584496 -15465.785166  12115.205877    740.240505
PC46   4124.448500  19535.973310  19510.041387   -290.169986
PE01  18362.602070   7105.406871  22096.479301   -622.962582
PE02 -18514.415843  -6970.209493 -22029.303241    295.030915
PE03 -24920.932562 -15927.610297   1028.781840   -551.576758
PE04  24754.452117   1647.249528  16159.152548  -1013.961631
PE05 -10430.101002 -21114.264569  17940.318144   -187.648511
PE07  -9893.275297  13942.071850 -24152.363752   -662.030358
PE08 -24572.292042  -1395.025049 -16429.238535   -518.136691
PE09   9644.687469 -13944.948226  24272.592842   -496.048026
PE10  13593.110581 -16120.168161 -20784.888895   -508.869276
PE11   9084.646335 -24808.326231 -13383.443122   3860.503589
PE12  15923.791705  -5326.377339 -24384.232388   4645.861900
PE13  -9339.181401  24352.995939  13984.242581    428.254980
PE14  -6072.358294  14967.360931  18358.688562  -1826.142533
PE15 -15850.477109   5149.817043  24463.538017    749.603296
PE18  15294.201264 -13472.451269 -24417.095323  -1524.543322
PE19  23836.767179  17221.388101  -3356.102042  -3586.426004
PE21    163.948704  18081.682745  23430.840839   -730.442099
PE24  20185.314180 -18999.760172 -10362.518450   -579.671587
PE25    114.312803 -18177.456063 -23357.997201   -571.623392
PE26   3163.216830  28898.244968  -5557.285183  -1069.897012
PE27 -19250.601840  19387.785038  11401.315391   -284.030554
PE30 -27195.785825   8407.116944  -8159.684308   -458.359850
PE31  27162.690793  -9268.260380   7236.331134   -495.604268
PE33  12985.678866  16975.551533 -20470.699127   -457.281011
PE34 -13085.855931 -16774.538666  20571.870095   -513.799595
PE36  -2608.181168 -29127.328883   4631.426389   -364.512487
PG01 -13133.951915  16273.216333  15863.655536    377.286303
PG02  14072.409688   6432.340262 -20916.428697   -653.235379
PG03 -22307.229516  13152.386889  -5728.739337   -220.116330
PG04 -14406.894824   7163.984860 -21135.851522   -173.041191
PG05  24630.619578  -3725.503372  -9592.158923    -79.532454
PG06   6481.477442  21257.302616 -14420.516460    279.189705
PG07  -5165.921685  25673.892046  -1875.503868    321.062840
PG08 -20811.599619  -1206.721902  16624.645153    -65.345285
PG09  -3910.690260  15764.935432 -21073.048332   -341.419660
PG10  -3597.936306 -14680.540228  21969.886062   -391.046084
PG11  13791.866069   7299.040618 -21496.022261    -34.274079
PG12  24569.299472  -9661.243465  -2469.336497   -205.580752
PG13  21423.180540  10842.915708  11388.243459    300.174574
PG14   1822.737581  15538.493755  21450.959965   -104.776178
PG15  20716.784526  -1771.513846  16290.608120    -66.287076
PG16 -23341.533401  -2408.826852 -13147.770458   -494.987577
PG17  11246.457019  20974.448237  12166.667269    604.633278
PG18   6097.801701 -25643.094588  -2757.463278    186.897989
PG19  16462.345648  20403.282305   4627.188881    148.865278
PG20  19635.273320   3081.959368 -17500.487887    515.668463
PG21 -15433.560023   4992.018438  21568.857423    160.706937
PG22 -17986.645455 -19513.174111   2944.755142    248.785360
PG23   8590.946799 -17337.746405  18141.202521    -17.445904
PG24  14224.440284 -12523.580835  18145.804456    251.656054
PG25  15222.319577 -16801.059496 -13897.264122    316.427097
PG26 -15265.347694  -9027.100510 -19944.532865    201.100805
PG27 -22883.064510 -11842.709637   7039.405030    190.745941
PG28  10741.922907  12210.726865  21471.383067    367.578993
PG29   5677.548892 -14413.016129 -21618.551063   -506.790147
PG30    847.937543  25582.777755   6661.189398   -525.271770
PG31  -8439.249582 -19120.707262 -16239.347145   -174.890560
PG32 -14355.658272 -20109.264538  10137.582519   -112.770295
PJ02 -29848.183406  29194.646665  11159.313253     -2.989251
PJ03 -25659.240134  24506.072309  27833.954698     -1.738167
PR01  23795.558176    105.832681   9218.505551      8.093467
PR02   9029.077621  -8706.364731  22249.596130    516.508221
PR03  -9888.238742 -12014.779995  20279.380233     55.517040
PR04 -22960.908948  -8551.991973   7142.209648    138.378462
PR05 -23477.739760   -525.433922  -9968.567352     91.746137
PR07  10571.260656  11960.119447 -19836.247592     34.259827
PR08  23060.663356   8396.687832  -6848.971283    -64.784798
PR09 -14386.854886  20369.063694   5193.880393     51.601705
PR11  11018.199818   3743.494783  22708.268820     40.395053
PR12  18779.478703 -12039.036474  12377.083183     18.088217
PR13  15171.471539 -20120.605618  -3972.685852    -21.398486
PR14   2095.549834 -16434.130698 -19393.088654     76.885796
PR15 -11601.285933  -3226.180013 -22470.161403     96.585296
PR17  -7098.836224 -24455.271108  -1170.500472    520.477897
PR18 -12106.506996 -16885.962236  14848.977306    114.688128
PR19 -11050.077302  -1862.414871  22910.714698   -186.653627
PR20  -3143.480103  18115.072333  17660.536089    -69.318396
PR21   7645.285323  24344.297260   -344.414453   -296.065263
PR22  12059.439462  16148.424483 -15585.732654   -179.077754
PR24   2645.993672 -18819.901641 -16998.282734     90.700991
EOF
